QIANFAN-41              
1 62242U 24232F   25263.21726853  .00000091  00000+0  12179-3 0  9993
2 62242  88.9979  49.6147 0015711  75.6727 284.6168 13.50970547 87975
QIANFAN-42              
1 62243U 24232G   25263.31720338  .00000371  00000+0  15438-3 0  9999
2 62243  88.9979  46.8729 0014877   6.0408 354.0961 14.24352379 89498
QIANFAN-43              
1 62244U 24232H   25263.28725734  .00000090  00000+0  11982-3 0  9999
2 62244  88.9983  49.6692 0017277  79.9572 280.3528 13.50967882 56596
QIANFAN-44              
1 62245U 24232J   25263.27488595  .00000076  00000+0  98230-4 0  9996
2 62245  88.9980  49.4825 0015470  77.5703 282.7178 13.50973257 88060
QIANFAN-45              
1 62246U 24232K   25263.31603671  .00000074  00000+0  95171-4 0  9995
2 62246  88.9984  49.6220 0016104  77.0619 283.2330 13.50969955 87999
QIANFAN-46              
1 62247U 24232L   25263.34070727  .00000081  00000+0  10619-3 0  9990
2 62247  88.9981  49.6919 0016238  81.8650 278.4342 13.50970681 87951
QIANFAN-47              
1 62248U 24232M   25263.27079791  .00000080  00000+0  10435-3 0  9998
2 62248  88.9976  49.6353 0016655  81.2354 279.0682 13.50964197 87977
QIANFAN-48              
1 62249U 24232N   25263.23376170  .00000073  00000+0  94757-4 0  9998
2 62249  88.9981  49.6376 0018926  83.4941 276.8364 13.50967828 87974
